BeeSat 9
1 44412U 19038AC  22230.44430318  .00009642  00000-0  48007-3 0  9995
2 44412  97.6402 200.2312 0017882 280.9085  79.0136 15.17667739172090
JAISAT-1
1 44419U 19038F   22230.67432505  .00008860  00000-0  43572-3 0  9990
2 44419  97.6403 201.3491 0016912 276.7117  83.2191 15.18140475172496
LightSail-2
1 44420U 19036AC  22230.75595561  .00080236  00000-0  87016-2 0  9998
2 44420  23.9997  80.7788 0016568 295.9128  63.9663 14.86570879166466
Taurus 1
1 44530U 19059C   22230.78594914  .00001419  00000-0  40000-3 0  9998
2 44530  98.5494 329.9114 0011999 292.1150  67.8772 14.47269090154868
Duchifat 3
1 44854U 19089C   22230.77779573  .00002664  00000-0  20855-3 0  9994
2 44854  36.9657  90.7664 0008603 357.5947  93.2028 15.01408456147305
OPS-SAT
1 44878U 19092F   22230.45215365  .00011383  00000-0  51608-3 0  9991
2 44878  97.4819  53.9090 0013440 120.8197 239.4363 15.20921974147616
TO-108
1 44881U 19093C   22230.77234690  .00000394  00000-0  56570-4 0  9997
2 44881  97.8912 309.0836 0014721 349.1748  10.9142 14.81786814144007
FloripaSat 1
1 44885U 19093G   22230.74648151  .00001336  00000-0  16944-3 0  9996
2 44885  97.8960 310.5105 0014207 355.3305   4.7773 14.83323763144088
RS-44
1 44909U 19096E   22230.34596836  .00000008  00000-0 -16904-4 0  9997
2 44909  82.5229 189.1587 0217386 174.7230 185.6237 12.79714273123423
BY70-2
1 45857U 20042B   22230.75571974  .00004789  00000-0  63286-3 0  9997
2 45857  97.9535 307.0244 0008733 273.2219  86.7983 14.80439402114671
UPMSat 2
1 46276U 20061E   22230.45229477  .00004127  00000-0  20292-3 0  9995
2 46276  97.3876 299.8652 0001115  34.7045 325.4262 15.18572230108286
AmicalSat
1 46287U 20061R   22230.45086731  .00004912  00000-0  28032-3 0  9993
2 46287  97.4423 298.7176 0004034  76.2444 283.9236 15.13189903107849
SALSAT
1 46495U 20068K   22230.47703800  .00001560  00000-0  11486-3 0  9997
2 46495  97.7308 171.8131 0018064  69.3851 290.9310 15.04722748103511
BY70-3
1 46839U 20079N   22230.88108006  .00019760  00000-0  42986-3 0  9993
2 46839  97.1940 302.2435 0006995 106.5160 312.4172 15.44321204 99878
CAPE 3
1 47309U 21002A   22230.30039892  .00011869  00000-0  46605-3 0  9990
2 47309  60.6826 131.7482 0031310  20.6564 339.5781 15.25702076 87882
AO-109
1 47311U 21002C   22230.26784680  .00011039  00000-0  43020-3 0  9997
2 47311  60.6846 129.4075 0027613  22.4806 337.7485 15.26118842 87894
MiTEE 1
1 47314U 21002F   22230.23683378  .00023525  00000-0  75775-3 0  9994
2 47314  60.6816 121.0665 0024494  15.3048 344.8778 15.31904864 88056
ExoCube 2
1 47319U 21002L   22230.41553203  .00010476  00000-0  41399-3 0  9998
2 47319  60.6830 130.0579 0028863  22.8362 337.4002 15.25670345 87860
UVSQ-SAT
1 47438U 21006AB  22230.12717054  .00006358  00000-0  33105-3 0  9998
2 47438  97.4324 287.8799 0013134  65.5125 294.7476 15.16285561 86624
YUSAT 1
1 47439U 21006AC  22230.80327716  .00008091  00000-0  41375-3 0  9990
2 47439  97.4330 288.6882 0012805  63.5584 296.6961 15.16836962 86734
SOMP 2b
1 47445U 21006AJ  22230.40321470  .00006077  00000-0  31979-3 0  9995
2 47445  97.4295 287.7628 0012901  68.6538 291.6071 15.15928237 86655
IDEASSat
1 47458U 21006AX  22230.78781623  .00006555  00000-0  34631-3 0  9999
2 47458  97.4385 288.6934 0012027  66.3043 293.9450 15.15771942 86705
CubeSX-Sirius-HSE
1 47951U 21022V   22230.88248124  .00002668  00000-0  17744-3 0  9997
2 47951  97.5219 129.0883 0019814 296.3499 125.9769 15.07863344 77405
CubeSX-HSE
1 47952U 21022W   22230.86774274  .00003555  00000-0  23467-3 0  9991
2 47952  97.5230 129.0969 0019572 294.9201 129.1716 15.07927527 77402
KSU-Cubesat
1 47954U 21022Y   22230.47819799  .00004733  00000-0  30886-3 0  9994
2 47954  97.5225 128.8431 0018963 295.2345  64.6918 15.08191200 77077
GRBAlpha
1 47959U 21022AD  22230.86485453  .00003693  00000-0  24342-3 0  9992
2 47959  97.5234 129.1374 0019365 295.0085 129.1861 15.07956876 76225
Orbicraft-Zorkiy
1 47960U 21022AE  22230.83750756  .00002975  00000-0  19610-3 0  9996
2 47960  97.5251 129.2725 0018889 295.4345 152.8083 15.08121531 76918
STECCO
1 47962U 21022AG  22230.83284743  .00004752  00000-0  29336-3 0  9997
2 47962  97.5224 130.1064 0013732 288.6199 140.3575 15.10300671 76285
DO-111
1 47963U 21022AH  22230.26312186  .00020413  00000-0  10898-2 0  9992
2 47963  97.5247 130.9551 0014091 281.2447  78.7201 15.15072849 76305
MO-110
1 47964U 21022AJ  22230.18635836  .00007909  00000-0  47971-3 0  9992
2 47964  97.5229 129.7672 0016337 286.1234  73.8197 15.10699582 76202
FEES
1 48082U 21022AL  22229.95965058  .00009042  00000-0  53737-3 0  9996
2 48082  97.5231 129.5222 0012495 283.6923  76.2916 15.11443357 75870
RamSat
1 48850U 98067SL  22230.39102971  .00158966  00000-0  79437-3 0  9994
2 48850  51.6365 359.0161 0004891 313.7467  46.3129 15.80816726 67092
TUBIN
1 48900U 21059X   22230.82876789  .00003237  00000-0  18038-3 0  9990
2 48900  97.5619 359.6699 0008548 245.6728 217.7887 15.14298286 63359
IT-SPINS
1 49017U 21013G   22230.36056729  .00009564  00000-0  36221-3 0  9996
2 49017  51.5977 103.1857 0007440 302.4843  57.5416 15.27540969 63242
LEDSAT
1 49069U 21073D   22230.85287529  .00004026  00000-0  25577-3 0  9997
2 49069  97.5206 302.5120 0028520  81.6342 278.8119 15.09080169 55244
CUTE
1 49263U 21088D   22230.49789008  .00003059  00000-0  22814-3 0  9994
2 49263  97.5844 297.1848 0019099 208.1469 151.8726 15.03475281 48749
Binar-1
1 49272U 98067SR  22230.44019423  .00178995  00000-0  79957-3 0  9999
2 49272  51.6305   2.2838 0003977 292.1589  67.8991 15.83171065 49449
CUAVA-1
1 49275U 98067SU  22230.46390328  .00589033  17156-3  93925-3 0  9993
2 49275  51.6261 355.3096 0011803 317.2435 158.6269 16.02954259 49484
TeikyoSat 4
1 49396U 21102B   22230.10208893  .00001438  00000-0  11761-3 0  9992
2 49396  97.5253 286.2065 0017830  47.2416 313.0305 15.00746645 42296
Z-Sat
1 49399U 21102E   22230.89322200  .00001621  00000-0  12509-3 0  9995
2 49399  97.5339 287.9556 0023199  23.1226 337.1038 15.02747854 42468
KOSEN 1
1 49402U 21102H   22230.11253516  .00002588  00000-0  19155-3 0  9995
2 49402  97.5248 287.3579 0022301  14.3047 345.8806 15.03831073 42375
HO-113
1 50466U 21131B   22230.84247520  .00000097  00000-0  46219-4 0  9992
2 50466  98.5783 308.0611 0003698 336.8209  23.2810 14.38515958 33886
Tevel
1 50999U 22002R   22230.86196356  .00005566  00000-0  29634-3 0  9990
2 50999  97.4762 296.9438 0010700 194.8036 275.4119 15.15580177 32878
Grizu-263a
1 51025U 22002AT  22230.12952200  .00015023  00000-0  73901-3 0  9993
2 51025  97.4934 297.1415 0012146 202.7907 157.2790 15.18043875 32795
NO-116
1 51031U 22002AZ  22230.60439824  .00010659  00000-0  54468-3 0  9992
2 51031  97.4889 297.2978 0012395 201.7960 158.2748 15.16791301 32853
IRIS-A
1 51044U 22002BN  22230.41060181  .00004678  00000-0  26208-3 0  9996
2 51044  97.4779 296.1752 0008571 201.1842 158.9036 15.13866328 32785
DELFI-PQ
1 51074U 22002CU  22230.13635277  .00011695  00000-0  57068-3 0  9997
2 51074  97.5016 297.6690 0012350 235.2199 124.7873 15.18384770 32818
SO-115
1 51080U 22002DA  22229.15722595  .00005582  00000-0  28301-3 0  9990
2 51080  97.5028 296.5604 0012062 239.6098 120.3944 15.17298242 32657
SO-114
1 51081U 22002DB  22230.14687946  .00007636  00000-0  38555-3 0  9996
2 51081  97.5020 297.5163 0012468 235.5184 124.4872 15.17316979 32802
OreSat0
1 52017U 22026K   22230.49814316  .00006896  00000-0  36222-3 0  9999
2 52017  97.5048 229.5734 0028558  61.8556 298.5556 15.15668866 23581
Planetum 1
1 52738U 22057G   22230.58637535  .00005490  00000-0  31933-3 0  9992
2 52738  97.5171 344.2532 0007306 326.5454  33.5314 15.12447619 12827
Foresail-1
1 52766U 22057AL  22230.86169894  .00003298  00000-0  18678-3 0  9997
2 52766  97.5278 344.8050 0012188 301.2868 154.8765 15.13666600 12876
SNUGLITE 2
1 52899U 22065F   22230.66270049  .00000470  00000-0  11096-3 0  9992
2 52899  98.0269  19.9256 0009581  82.5093 277.7198 14.58387116  6765
CTIM
1 52950U 22074G   22230.39627556  .00005595  00000-0  23607-3 0  9993
2 52950  45.0203 222.0086 0001399 150.1850 209.9114 15.24314064  7181
MTCube 2
1 53106U 22080B   22228.77058609 -.00000003  00000-0  00000 0 0  9998
2 53106  70.1487  65.4803 0007999 250.7836 109.1974  6.42558509  2192
AstroBioCubeSat
1 53107U 22080C   22228.63860713 -.00000003  00000-0  00000 0 0  9991
2 53107  70.1504  65.5620 0013481 242.6974 117.2413  6.42110769  2085
GREENCUBE
1 53109U 22080E   22230.48120462 -.00000003  00000-0  00000-0 0  9990
2 53109  70.1383  64.6956 0009378 236.9715 123.0065  6.42583830  2196
CELESTA
1 53111U 22080G   22209.16019017 -.00000003  00000-0  00000-0 0  9997
2 53111  70.1517  72.3224 0015664 220.2144 139.7964  6.42532870   816
RS4S
1 53306U 98067TR  22230.70809324  .00047291  00000-0  77679-3 0  9991
2 53306  51.6425  26.6942 0002476 137.1260 222.9923 15.51920953  4362
RS3S
1 53308U 98067TT  22230.70749851  .00053006  00000-0  86873-3 0  9998
2 53308  51.6423  26.6901 0002283 126.4287 233.6913 15.51933775  4424
RS1S
1 53309U 98067TU  22230.90003822  .00053124  00000-0  86836-3 0  9992
2 53309  51.6422  25.7251 0002818 145.2735 214.8439 15.52005272  4408
RS5S
1 53310U 98067TV  22230.90018367  .00050853  00000-0  83342-3 0  9999
2 53310  51.6426  25.7271 0002555 146.5770 213.5381 15.51951927  4438
RS6S
1 53311U 98067TW  22230.89865634  .00057178  00000-0  92920-3 0  9994
2 53311  51.6420  25.7158 0001987 117.4799 242.6393 15.52137982  4459
RS9S
1 53312U 98067TX  22230.89908374  .00054189  00000-0  88369-3 0  9995
2 53312  51.6424  25.7188 0003010 148.4390 211.6781 15.52062193  4398
RS12S
1 53313U 98067TY  22230.89828617  .00052527  00000-0  85552-3 0  9992
2 53313  51.6424  25.7141 0002530 154.4712 205.6403 15.52111406  4441
